OBJECT_NAME,OBJECT_ID,EPOCH,MEAN_MOTION,ECCENTRICITY,INCLINATION,RA_OF_ASC_NODE,ARG_OF_PERICENTER,MEAN_ANOMALY,EPHEMERIS_TYPE,CLASSIFICATION_TYPE,NORAD_CAT_ID,ELEMENT_SET_NO,REV_AT_EPOCH,BSTAR,MEAN_MOTION_DOT,MEAN_MOTION_DDOT
IRIDIUM 179,2023-068W,2026-03-10T01:36:41.061888,14.80238780,.00023245,86.6720,75.4725,95.3101,264.8386,0,U,56730,999,15170,.81254921E-4,.644E-5,0
2023-069A,2023-069A,2026-03-10T07:09:21.857760,15.43984720,.00293048,40.9954,46.0313,312.5384,47.2967,0,U,56731,999,15779,.38162839E-3,.17882E-3,0
2023-069B,2023-069B,2026-03-09T13:07:46.108416,15.09579619,.00116524,41.0081,274.4606,279.7432,80.2064,0,U,56732,999,15516,.42419683E-3,.6772E-4,0
NEXTSAT-2,2023-072A,2026-03-10T07:02:55.065696,15.26405570,.00062381,97.5306,265.4322,21.3547,338.7950,0,U,56743,999,15450,.63983955E-3,.16609E-3,0
SNIPE 4,2023-072B,2026-03-10T06:39:22.791168,15.38272873,.00053454,97.5358,272.3782,329.0833,31.0096,0,U,56744,999,15488,.69971894E-3,.26373E-3,0
SNIPE 2,2023-072C,2026-03-09T11:21:04.371264,15.41694724,.00049327,97.5357,273.9779,6.2338,353.8968,0,U,56745,999,15485,.72334045E-3,.30525E-3,0
2023-072D,2023-072D,2026-03-10T07:37:31.469376,15.56468350,.00019576,97.5083,279.6580,340.3461,19.7718,0,U,56746,999,15542,.97637138E-3,.69476E-3,0
2023-072E,2023-072E,2026-03-10T06:40:29.503200,15.43211621,.00038896,97.5177,275.0459,356.4936,3.6284,0,U,56747,999,15510,.71595828E-3,.31784E-3,0
2023-072F,2023-072F,2026-03-10T07:22:40.377792,15.29479977,.00062649,97.5173,266.1286,17.9330,342.2130,0,U,56748,999,15465,.46451736E-3,.13215E-3,0
2023-072G,2023-072G,2026-03-10T06:42:15.381216,15.45009046,.00040719,97.5020,273.5419,354.0839,6.0361,0,U,56749,999,15516,.73164237E-3,.34529E-3,0
KONDOR-FKA NO. 1,2023-074A,2026-03-07T10:13:03.575712,15.19772289,.00017305,97.4394,262.4533,84.6258,275.5174,0,U,56756,999,15423,.3518818E-3,.7463E-4,0
ARABSAT-7B (BADR-8),2023-075A,2026-03-09T20:55:38.705664,1.00273727,.0005369,0.0780,27.4250,328.9378,151.0863,0,U,56757,999,1012,0,.146E-5,0
NVS-01 (IRNSS-1J),2023-076A,2026-03-10T05:51:34.876224,1.00271431,.00069839,2.4053,248.4173,47.0654,89.8548,0,U,56759,999,1012,0,-.336E-5,0
STARLINK-6197,2023-078A,2026-03-10T03:40:20.960832,15.17026944,.00072386,69.9932,348.5133,212.1601,147.9127,0,U,56767,999,15262,.72602608E-3,.14316E-3,0
STARLINK-6198,2023-078B,2026-03-10T03:12:26.900352,14.98323873,.00029427,69.9999,323.2011,258.5094,101.5735,0,U,56768,999,15324,-.12696912E-3,-.1607E-4,0
STARLINK-6342,2023-078D,2026-03-10T06:25:35.886144,14.98335367,.00023588,70.0036,3.0066,250.1186,109.9719,0,U,56770,999,15227,.13686711E-4,.7E-6,0
STARLINK-6275,2023-078F,2026-03-10T06:19:22.721088,14.98334000,.00025991,70.0023,2.9888,256.6485,103.4385,0,U,56772,999,15227,-.17859862E-3,-.2223E-4,0
STARLINK-6296,2023-078G,2026-03-10T00:47:55.818816,14.98328074,.00029248,69.9989,303.7586,270.8117,89.2707,0,U,56773,999,15371,-.20349635E-4,-.336E-5,0
STARLINK-6190,2023-078H,2026-03-10T05:13:17.986656,14.98325420,.00023098,70.0015,3.2255,268.6595,91.4300,0,U,56774,999,15226,.10820205E-4,.36E-6,0
STARLINK-6292,2023-078J,2026-03-10T00:42:00.383904,14.98272232,.00028791,69.9994,303.7449,273.2532,86.8298,0,U,56775,999,15371,-.65754917E-3,-.7918E-4,0
STARLINK-6274,2023-078K,2026-03-10T02:54:26.558208,14.98329906,.00024872,70.0006,323.5521,257.9159,102.1721,0,U,56776,999,15323,-.48459254E-4,-.671E-5,0
STARLINK-5582,2023-078L,2026-03-10T03:30:50.104800,14.98317584,.00028551,70.0012,343.5122,274.9904,85.0929,0,U,56777,999,15274,-.15666972E-3,-.1961E-4,0
STARLINK-6304,2023-078M,2026-03-10T02:48:25.924608,14.98323335,.00030543,70.0003,323.5373,261.5923,98.4890,0,U,56778,999,15323,.11723043E-3,.1306E-4,0
STARLINK-6231,2023-078N,2026-03-10T02:12:22.149792,14.98329601,.00025808,70.0002,323.4482,264.6442,95.4423,0,U,56779,999,15322,-.239025E-4,-.378E-5,0
STARLINK-5963,2023-078P,2026-03-10T03:25:01.179264,14.98328545,.00028782,70.0004,343.1148,267.6414,92.4415,0,U,56780,999,15275,-.7839914E-5,-.187E-5,0
STARLINK-5989,2023-078Q,2026-03-10T04:36:54.544608,14.98330481,.00025763,70.0008,343.2663,273.4988,86.5876,0,U,56781,999,15275,-.14502085E-4,-.266E-5,0
STARLINK-6352,2023-078R,2026-03-10T02:42:27.100224,14.98312761,.00028531,69.9998,323.5217,271.8720,88.2113,0,U,56782,999,15323,-.40862939E-4,-.58E-5,0
STARLINK-6357,2023-078S,2026-03-10T02:30:24.016896,14.98326357,.00028198,70.0003,323.4927,259.9185,100.1656,0,U,56783,999,15323,-.51884288E-4,-.712E-5,0
STARLINK-6354,2023-078T,2026-03-10T02:36:25.068672,14.98324170,.00025227,70.0005,323.5077,257.2419,102.8458,0,U,56784,999,15323,-.84088316E-4,-.1096E-4,0
STARLINK-5931,2023-078U,2026-03-10T03:12:46.095840,14.98347959,.00027692,70.0008,343.4662,264.7313,95.3531,0,U,56785,999,15343,.17516335E-3,.1999E-4,0
