IRIDIUM 179             
1 56730U 23068W   26069.06714192  .00000644  00000+0  81255-4 0  9991
2 56730  86.6720  75.4725 0002324  95.3101 264.8386 14.80238780151704
2023-069A               
1 56731U 23069A   26069.29816965  .00017882  00000+0  38163-3 0  9990
2 56731  40.9954  46.0313 0029304 312.5384  47.2967 15.43984720157793
2023-069B               
1 56732U 23069B   26068.54706144  .00006772  00000+0  42420-3 0  9992
2 56732  41.0081 274.4606 0011652 279.7432  80.2064 15.09579619155167
NEXTSAT-2               
1 56743U 23072A   26069.29369289  .00016609  00000+0  63984-3 0  9994
2 56743  97.5306 265.4322 0006238  21.3547 338.7950 15.26405570154507
SNIPE 4                 
1 56744U 23072B   26069.27734712  .00026373  00000+0  69972-3 0  9992
2 56744  97.5358 272.3782 0005345 329.0833  31.0096 15.38272873154882
SNIPE 2                 
1 56745U 23072C   26068.47296726  .00030525  00000+0  72334-3 0  9992
2 56745  97.5357 273.9779 0004932   6.2338 353.8968 15.41694724154857
2023-072D               
1 56746U 23072D   26069.31772534  .00069476  00000+0  97637-3 0  9993
2 56746  97.5083 279.6580 0001957 340.3461  19.7718 15.56468350155425
2023-072E               
1 56747U 23072E   26069.27811925  .00031784  00000+0  71596-3 0  9994
2 56747  97.5177 275.0459 0003889 356.4936   3.6284 15.43211621155104
2023-072F               
1 56748U 23072F   26069.30741178  .00013215  00000+0  46452-3 0  9993
2 56748  97.5173 266.1286 0006264  17.9330 342.2130 15.29479977154652
2023-072G               
1 56749U 23072G   26069.27934469  .00034529  00000+0  73164-3 0  9998
2 56749  97.5020 273.5419 0004071 354.0839   6.0361 15.45009046155169
KONDOR-FKA NO. 1        
1 56756U 23074A   26066.42573583  .00007463  00000+0  35188-3 0  9999
2 56756  97.4394 262.4533 0001730  84.6258 275.5174 15.19772289154233
ARABSAT-7B (BADR-8)     
1 56757U 23075A   26068.87197576  .00000146  00000+0  00000+0 0  9998
2 56757   0.0780  27.4250 0005369 328.9378 151.0863  1.00273727 10127
NVS-01 (IRNSS-1J)       
1 56759U 23076A   26069.24415366 -.00000336  00000+0  00000+0 0  9995
2 56759   2.4053 248.4173 0006983  47.0654  89.8548  1.00271431 10124
STARLINK-6197           
1 56767U 23078A   26069.15302038  .00014316  00000+0  72603-3 0  9991
2 56767  69.9932 348.5133 0007238 212.1601 147.9127 15.17026944152627
STARLINK-6198           
1 56768U 23078B   26069.13364468 -.00001607  00000+0 -12697-3 0  9993
2 56768  69.9999 323.2011 0002942 258.5094 101.5735 14.98323873153242
STARLINK-6342           
1 56770U 23078D   26069.26777646  .00000070  00000+0  13687-4 0  9998
2 56770  70.0036   3.0066 0002358 250.1186 109.9719 14.98335367152271
STARLINK-6275           
1 56772U 23078F   26069.26345742 -.00002223  00000+0 -17860-3 0  9998
2 56772  70.0023   2.9888 0002599 256.6485 103.4385 14.98334000152270
STARLINK-6296           
1 56773U 23078G   26069.03328494 -.00000336  00000+0 -20350-4 0  9991
2 56773  69.9989 303.7586 0002924 270.8117  89.2707 14.98328074153711
STARLINK-6190           
1 56774U 23078H   26069.21756929  .00000036  00000+0  10820-4 0  9996
2 56774  70.0015   3.2255 0002309 268.6595  91.4300 14.98325420152267
STARLINK-6292           
1 56775U 23078J   26069.02917111 -.00007918  00000+0 -65755-3 0  9992
2 56775  69.9994 303.7449 0002879 273.2532  86.8298 14.98272232153716
STARLINK-6274           
1 56776U 23078K   26069.12114072 -.00000671  00000+0 -48459-4 0  9991
2 56776  70.0006 323.5521 0002487 257.9159 102.1721 14.98329906153235
STARLINK-5582           
1 56777U 23078L   26069.14641325 -.00001961  00000+0 -15667-3 0  9997
2 56777  70.0012 343.5122 0002855 274.9904  85.0929 14.98317584152741
STARLINK-6304           
1 56778U 23078M   26069.11696672  .00001306  00000+0  11723-3 0  9990
2 56778  70.0003 323.5373 0003054 261.5923  98.4890 14.98323335153234
STARLINK-6231           
1 56779U 23078N   26069.09192303 -.00000378  00000+0 -23902-4 0  9993
2 56779  70.0002 323.4482 0002580 264.6442  95.4423 14.98329601153227
STARLINK-5963           
1 56780U 23078P   26069.14237476 -.00000187  00000+0 -78399-5 0  9991
2 56780  70.0004 343.1148 0002878 267.6414  92.4415 14.98328545152752
STARLINK-5989           
1 56781U 23078Q   26069.19229797 -.00000266  00000+0 -14502-4 0  9997
2 56781  70.0008 343.2663 0002576 273.4988  86.5876 14.98330481152753
STARLINK-6352           
1 56782U 23078R   26069.11281366 -.00000580  00000+0 -40863-4 0  9998
2 56782  69.9998 323.5217 0002853 271.8720  88.2113 14.98312761153237
STARLINK-6357           
1 56783U 23078S   26069.10444464 -.00000712  00000+0 -51884-4 0  9990
2 56783  70.0003 323.4927 0002819 259.9185 100.1656 14.98326357153231
STARLINK-6354           
1 56784U 23078T   26069.10862348 -.00001096  00000+0 -84088-4 0  9994
2 56784  70.0005 323.5077 0002522 257.2419 102.8458 14.98324170153233
STARLINK-5931           
1 56785U 23078U   26069.13386685  .00001999  00000+0  17516-3 0  9994
2 56785  70.0008 343.4662 0002769 264.7313  95.3531 14.98347959153437
